NORAD_CAT_ID,OBJECT_NAME,OBJECT_TYPE,EPOCH,MEAN_MOTION,ECCENTRICITY,INCLINATION,RA_OF_ASC_NODE,ARG_OF_PERICENTER,MEAN_ANOMALY,BSTAR,MEAN_MOTION_DOT,MEAN_MOTION_DDOT,TLE_LINE0,TLE_LINE1,TLE_LINE2,SEMIMAJOR_AXIS,PERIOD,APOGEE,PERIGEE,DECAYED
50179.0,STARLINK-3283,PAYLOAD,2022-08-08 14:08:20,15.08847658,0.0001621,53.2198,5.9123,53.8202,306.2940000000001,0.00014212,1.975e-05,0.0,0 STARLINK-3283,1 50179U 21125Z   22220.58913072  .00001975  00000-0  14212-3 0  9991,2 50179  53.2198   5.9123 0001621  53.8202 306.2940 15.08847658 38975,6917.857,95.437,540.8430000000002,538.601,0.0
50179.0,STARLINK-3283,PAYLOAD,2022-08-09 02:51:24,15.08860111,0.0001628,53.2197,3.5335,52.6099,307.5042,0.00019169,2.766e-05,0.0,0 STARLINK-3283,1 50179U 21125Z   22221.11903861  .00002766  00000-0  19169-3 0  9991,2 50179  53.2197   3.5335 0001628  52.6099 307.5042 15.08860111 38562,6917.819,95.436,540.81,538.558,0.0
50179.0,STARLINK-3283,PAYLOAD,2022-08-09 09:12:58,15.08852849,0.0002035,53.2204,2.3458,58.9061,301.2131,0.00021112,3.075e-05,0.0,0 STARLINK-3283,1 50179U 21125Z   22221.38400605  .00003075  00000-0  21112-3 0  9993,2 50179  53.2204   2.3458 0002035  58.9061 301.2131 15.08852849 39093,6917.840999999999,95.437,541.114,538.298,0.0
50179.0,STARLINK-3283,PAYLOAD,2022-08-09 13:59:08,15.08835348,0.000149,53.219,1.4508,53.1319,306.9809,0.00059177,9.141e-05,0.0,0 STARLINK-3283,1 50179U 21125Z   22221.58273577  .00009141  00000-0  59177-3 0  9993,2 50179  53.2190   1.4508 0001490  53.1319 306.9809 15.08835348 39123,6917.895,95.438,540.79,538.729,0.0
50179.0,STARLINK-3283,PAYLOAD,2022-08-10 12:14:33,15.0881895,0.0001281999999999,53.2198,357.2895,47.354,312.756,9.0716e-05,1.155e-05,0.0,0 STARLINK-3283,1 50179U 21125Z   22222.51010486  .00001155  00000-0  90716-4 0  9997,2 50179  53.2198 357.2895 0001282  47.3540 312.7560 15.08818950 39266,6917.945,95.439,540.697,538.923,0.0
50179.0,STARLINK-3283,PAYLOAD,2022-08-10 13:49:56,15.08818154,0.0001348,53.2198,356.9922,49.1985,310.9124,9.6292e-05,1.244e-05,0.0,0 STARLINK-3283,1 50179U 21125Z   22222.57634590  .00001244  00000-0  96292-4 0  9995,2 50179  53.2198 356.9922 0001348  49.1985 310.9124 15.08818154 38787,6917.946999999999,95.439,540.745,538.88,0.0
50179.0,STARLINK-3283,PAYLOAD,2022-08-10 17:00:42,15.08826791,0.000166,53.2199,356.3976,55.6875,304.4274,-6.4774e-07,-2.98e-06,0.0,0 STARLINK-3283,1 50179U 21125Z   22222.70882368 -.00000298  00000-0 -64774-6 0  9990,2 50179  53.2199 356.3976 0001660  55.6875 304.4274 15.08826791 39295,6917.920999999999,95.438,540.934,538.637,0.0
50179.0,STARLINK-3283,PAYLOAD,2022-08-11 13:40:43,15.08826641,0.0001599,53.2197,352.5322,52.6543,307.4594,-7.2937e-05,-1.448e-05,0.0,0 STARLINK-3283,1 50179U 21125Z   22223.56994621 -.00001448  00000-0 -72937-4 0  9997,2 50179  53.2197 352.5322 0001599  52.6543 307.4594 15.08826641 39423,6917.920999999999,95.438,540.8919999999998,538.68,0.0
50179.0,STARLINK-3283,PAYLOAD,2022-08-11 18:26:52,15.08825128,0.0001639,53.2196,351.64,52.371,307.7431,-6.6713e-05,-1.349e-05,0.0,0 STARLINK-3283,1 50179U 21125Z   22223.76866876 -.00001349  00000-0 -66713-4 0  9994,2 50179  53.2196 351.6400 0001639  52.3710 307.7431 15.08825128 38967,6917.926,95.438,540.925,538.6569999999998,0.0
50179.0,STARLINK-3283,PAYLOAD,2022-08-12 13:31:30,15.08829539,0.0001633,53.2193,348.0722,51.39100000000001,308.7228,9.6213e-05,1.243e-05,0.0,0 STARLINK-3283,1 50179U 21125Z   22224.56354714  .00001243  00000-0  96213-4 0  9995,2 50179  53.2193 348.0722 0001633  51.3910 308.7228 15.08829539 39579,6917.9119999999975,95.438,540.9069999999998,538.648,0.0
50179.0,STARLINK-3283,PAYLOAD,2022-08-12 18:17:39,15.08835862,0.0001698,53.2189,347.1799,47.7949,312.3188,0.00011432,1.532e-05,0.0,0 STARLINK-3283,1 50179U 21125Z   22224.76226361  .00001532  00000-0  11432-3 0  9993,2 50179  53.2189 347.1799 0001698  47.7949 312.3188 15.08835862 39606,6917.893,95.438,540.933,538.5830000000002,0.0
50179.0,STARLINK-3283,PAYLOAD,2022-08-13 13:22:18,15.08750739,0.0002138,53.2189,343.6116,55.6193,304.5001,0.0011255,0.00017626,0.0,0 STARLINK-3283,1 50179U 21125Z   22225.55716424  .00017626  00000-0  11255-2 0  9998,2 50179  53.2189 343.6116 0002138  55.6193 304.5001 15.08750739 39728,6918.153,95.443,541.497,538.539,0.0
50179.0,STARLINK-3283,PAYLOAD,2022-08-13 18:08:26,15.08837376,0.0001634,53.2188,342.7192,56.5387,303.5761,1.5507999999999998e-05,-4.1e-07,0.0,0 STARLINK-3283,1 50179U 21125Z   22225.75586671 -.00000041  00000-0  15508-4 0  9990,2 50179  53.2188 342.7192 0001634  56.5387 303.5761 15.08837376 39754,6917.888000000001,95.438,540.884,538.623,0.0
50179.0,STARLINK-3283,PAYLOAD,2022-08-14 11:37:42,15.08833026,0.000148,53.2179,339.4481,53.5316,306.5813,-2.8603e-05,-7.43e-06,0.0,0 STARLINK-3283,1 50179U 21125Z   22226.48451454 -.00000743  00000-0 -28603-4 0  9991,2 50179  53.2179 339.4481 0001480  53.5316 306.5813 15.08833026 39373,6917.901999999999,95.438,540.7909999999998,538.743,0.0
50179.0,STARLINK-3283,PAYLOAD,2022-08-14 14:48:28,15.08832372,0.000152,53.2177,338.8534,50.4246,309.688,-2.6519e-05,-7.1e-06,0.0,0 STARLINK-3283,1 50179U 21125Z   22226.61699538 -.00000710  00000-0 -26519-4 0  9991,2 50179  53.2177 338.8534 0001520  50.4246 309.6880 15.08832372 39883,6917.904,95.438,540.82,538.717,0.0
50179.0,STARLINK-3283,PAYLOAD,2022-08-15 11:28:29,15.088308499999998,0.000159,53.2171,334.9867,41.7562,318.3552,-1.127e-05,-4.67e-06,0.0,0 STARLINK-3283,1 50179U 21125Z   22227.47811612 -.00000467  00000-0 -11270-4 0  9992,2 50179  53.2171 334.9867 0001590  41.7562 318.3552 15.08830850 40013,6917.908,95.438,540.873,538.673,0.0
50179.0,STARLINK-3283,PAYLOAD,2022-08-16 11:19:16,15.08837113,0.000173,53.217,330.5271,37.6235,322.4878,7.1923e-05,8.57e-06,0.0,0 STARLINK-3283,1 50179U 21125Z   22228.47171465  .00000857  00000-0  71923-4 0  9990,2 50179  53.2170 330.5271 0001730  37.6235 322.4878 15.08837113 39676,6917.889,95.438,540.951,538.557,0.0
50179.0,STARLINK-3283,PAYLOAD,2022-08-17 11:10:02,15.08843073,0.0001592,53.218,326.0666,56.1152,303.9992,0.00015244,2.139e-05,0.0,0 STARLINK-3283,1 50179U 21125Z   22229.46530619  .00002139  00000-0  15244-3 0  9998,2 50179  53.2180 326.0666 0001592  56.1152 303.9992 15.08843073 40311,6917.871,95.437,540.837,538.635,0.0
50179.0,STARLINK-3283,PAYLOAD,2022-08-18 11:00:48,15.08851171,0.000174,53.2175,321.6066,48.7265,311.3876,7.7031e-05,9.38e-06,0.0,0 STARLINK-3283,1 50179U 21125Z   22230.45890032  .00000938  00000-0  77031-4 0  9995,2 50179  53.2175 321.6066 0001740  48.7265 311.3876 15.08851171 40465,6917.846,95.437,540.915,538.508,0.0
50179.0,STARLINK-3283,PAYLOAD,2022-08-19 04:30:02,15.08853176,0.0001733,53.2172,318.3353,51.1996,308.9151,1.7259000000000002e-05,-1.3e-07,0.0,0 STARLINK-3283,1 50179U 21125Z   22231.18753434 -.00000013  00000-0  17259-4 0  9991,2 50179  53.2172 318.3353 0001733  51.1996 308.9151 15.08853176 40088,6917.84,95.437,540.904,538.506,0.0
50179.0,STARLINK-3283,PAYLOAD,2022-08-19 10:51:35,15.08851614,0.0001563,53.217,317.1475,51.1869,308.9262,8.2729e-06,-1.56e-06,0.0,0 STARLINK-3283,1 50179U 21125Z   22231.45249240 -.00000156  00000-0  82729-5 0  9999,2 50179  53.2170 317.1475 0001563  51.1869 308.9262 15.08851614 40615,6917.845,95.437,540.7909999999998,538.629,0.0
50179.0,STARLINK-3283,PAYLOAD,2022-08-20 04:20:51,15.08832884,0.0001879,53.2173,313.8757,48.3448,311.7705,-0.00012099,-2.213e-05,0.0,0 STARLINK-3283,1 50179U 21125Z   22232.18114873 -.00002213  00000-0 -12099-3 0  9991,2 50179  53.2173 313.8757 0001879  48.3448 311.7705 15.08832884 40235,6917.901999999999,95.438,541.067,538.467,0.0
50179.0,STARLINK-3283,PAYLOAD,2022-08-20 10:42:24,15.08828084,0.0001671,53.2178,312.687,51.679,308.4352,-0.00013155,-2.380000000000001e-05,0.0,0 STARLINK-3283,1 50179U 21125Z   22232.44611257 -.00002380  00000-0 -13155-3 0  9997,2 50179  53.2178 312.6870 0001671  51.6790 308.4352 15.08828084 40766,6917.917,95.438,540.938,538.626,0.0
50179.0,STARLINK-3283,PAYLOAD,2022-08-21 05:47:02,15.08822152,0.0001724,53.2163,309.1175,41.0891,319.023,-0.00019214,-3.343e-05,0.0,0 STARLINK-3283,1 50179U 21125Z   22233.24100658 -.00003343  00000-0 -19214-3 0  9996,2 50179  53.2163 309.1175 0001724  41.0891 319.0230 15.08822152 40395,6917.935,95.439,540.993,538.607,0.0
50179.0,STARLINK-3283,PAYLOAD,2022-08-21 12:08:35,15.08824551,0.0001758,53.2174,307.9297,46.9043,313.2096,-0.00015341,-2.728e-05,0.0,0 STARLINK-3283,1 50179U 21125Z   22233.50596572 -.00002728  00000-0 -15341-3 0  9992,2 50179  53.2174 307.9297 0001758  46.9043 313.2096 15.08824551 40928,6917.928000000001,95.439,541.009,538.576,0.0
50179.0,STARLINK-3283,PAYLOAD,2022-08-21 13:43:58,15.08825927,0.0001725,53.2171,307.6315,47.7631,312.3508,-0.00014044,-2.522e-05,0.0,0 STARLINK-3283,1 50179U 21125Z   22233.57220560 -.00002522  00000-0 -14044-3 0  9991,2 50179  53.2171 307.6315 0001725  47.7631 312.3508 15.08825927 40442,6917.9230000000025,95.438,540.982,538.595,0.0
50179.0,STARLINK-3283,PAYLOAD,2022-08-21 21:40:54,15.08817534,0.0001771999999999,53.2171,306.1447,50.2947,309.8201,2.7416e-05,1.48e-06,0.0,0 STARLINK-3283,1 50179U 21125Z   22233.90340975  .00000148  00000-0  27416-4 0  9999,2 50179  53.2171 306.1447 0001772  50.2947 309.8201 15.08817534 40988,6917.949000000001,95.439,541.04,538.5880000000002,0.0
50179.0,STARLINK-3283,PAYLOAD,2022-08-22 08:48:37,15.08768811,0.0002077,53.2167,304.0627,50.965,309.1527,0.0007216,0.00011193,0.0,0 STARLINK-3283,1 50179U 21125Z   22234.36710162  .00011193  00000-0  72160-3 0  9996,2 50179  53.2167 304.0627 0002077  50.9650 309.1527 15.08768811 41053,6918.098000000001,95.442,541.4,538.526,0.0
50179.0,STARLINK-3283,PAYLOAD,2022-08-22 13:34:46,15.08821679,0.0001786999999999,53.2168,303.1706,47.6402,312.4741,7.979e-05,9.81e-06,0.0,0 STARLINK-3283,1 50179U 21125Z   22234.56581417  .00000981  00000-0  79790-4 0  9997,2 50179  53.2168 303.1706 0001787  47.6402 312.4741 15.08821679 41087,6917.936,95.439,541.038,538.565,0.0
